# From MPEC 2022-S20
C/1995 O1 (Hale-Bopp),e,89.4624,282.3109,130.2199,177.3981,0.0004171,0.99498095,0.0000,03/30.7256/1997,2000,g -2.0,4.0
# From NK 1615
P/1996 R2 (Lagerkvist),e,2.5998,40.0582,333.4264,3.773878,0.1344381,0.31453903,246.8991,02/25.0/2024,2000,g 11.5,4.0
# From MPC 75703
P/1998 VS24 (LINEAR),e,5.0282,159.0678,244.7263,4.522867,0.1024668,0.24363516,227.8296,02/25.0/2024,2000,g 13.0,2.0
# From NK 731
P/1999 RO28 (LONEOS),e,7.5669,137.8711,231.3225,3.426005,0.1554254,0.67240566,264.6981,02/25.0/2024,2000,g 20.0,2.0
# From MPC 75704
P/1999 XN120 (Catalina),e,5.0296,285.2602,161.6823,4.179151,0.1153644,0.21081454,283.1197,02/25.0/2024,2000,g 13.5,2.0
# From NK 744
P/2000 R2 (LINEAR),e,11.6820,160.2910,176.5910,3.468416,0.1525834,0.53091737,261.4040,02/25.0/2024,2000,g 18.0,4.0
# From MPC 43019
P/2001 H5 (NEAT),e,8.3687,328.6406,224.6637,6.095534,0.0654917,0.59840365,200.5125,02/25.0/2024,2000,g 12.0,4.0
# From MPEC 2023-UR6
P/2002 EJ57 (LINEAR),e,4.9828,330.2630,167.2553,6.458184,0.0600535,0.59312290,124.7833,02/25.0/2024,2000,g 12.5,4.0
# From MPC 75007
C/2002 VQ94 (LINEAR),e,70.7084,35.1597,99.8525,185.1125,0.0003913,0.96339679,2.5804,02/25.0/2024,2000,g  9.5,2.0
# From MPC 50354
P/2003 F2 (NEAT),e,11.6391,358.9529,192.3134,6.502536,0.0594401,0.54154181,93.0415,02/25.0/2024,2000,g 16.5,2.0
# From MPC 50139
P/2003 QX29 (NEAT),e,11.3979,264.5354,37.6704,8.006510,0.0435050,0.47185635,336.9817,02/25.0/2024,2000,g  8.5,4.0
# From MPC105235
P/2003 T12 (SOHO),e,11.0249,174.5795,219.7813,2.584374,0.2372308,0.77027138,329.2178,02/25.0/2024,2000,g 17.0,4.0
# From MPEC 2024-BE0
P/2004 DO29 (Spacewatch-LINEAR),e,14.5263,147.3784,40.3975,7.307125,0.0498981,0.44198825,355.1272,02/25.0/2024,2000,g 11.0,4.0
# From MPEC 2022-YN2
P/2004 FY140 (LINEAR),e,2.1620,327.2705,254.1155,4.970140,0.0889511,0.19201953,262.7754,02/25.0/2024,2000,g 12.5,2.0
# From MPC 53304
P/2004 R3 (LINEAR-NEAT),e,12.7916,305.1285,37.5445,4.753959,0.0950870,0.25452981,84.6178,02/25.0/2024,2000,g 14.5,4.0
# From MPC 75705
P/2004 V5 (LINEAR-Hill),e,19.3485,47.7385,87.4032,8.012792,0.0434539,0.44673519,305.1948,02/25.0/2024,2000,g  8.0,4.0
# From MPC 75705
P/2004 V5-B (LINEAR-Hill),e,19.3486,47.7388,87.4063,8.013189,0.0434506,0.44675923,305.1570,02/25.0/2024,2000,g  8.0,4.0
# From MPC 54164
P/2005 E1 (Tubbiolo),e,4.2619,335.5249,193.8705,7.061092,0.0525287,0.37648027,7.8908,02/25.0/2024,2000,g 10.0,4.0
# From MPC 79019
P/2005 J1 (McNaught),e,31.7395,268.7989,338.9151,3.573528,0.1459010,0.56903228,286.6401,02/25.0/2024,2000,g 16.5,4.0
# From MPC 74246
P/2005 L1 (McNaught),e,7.6644,136.1940,152.7113,4.009526,0.1227622,0.22305933,102.0688,02/25.0/2024,2000,g  9.5,4.0
# From MPC 75706
P/2005 S2 (Skiff),e,3.1370,161.3573,229.6921,7.993823,0.0436086,0.19888403,281.8326,02/25.0/2024,2000,g  7.5,4.0
# From MPC 75706
P/2005 SB216 (LONEOS),e,24.1103,1.1275,83.2172,7.152949,0.0515201,0.46552692,324.4689,02/25.0/2024,2000,g 12.0,2.0
# From MPC 73461
P/2005 T3 (Read),e,6.2274,27.6561,6.8085,7.586071,0.0471714,0.17543896,317.4091,02/25.0/2024,2000,g  9.0,4.0
# From MPC 73461
P/2005 T4 (SWAN),e,160.2853,25.9419,41.8754,9.354933,0.0344463,0.93010639,230.9455,02/25.0/2024,2000,g 15.0,4.0
# From MPC 75706
P/2005 T5 (Broughton),e,21.3835,57.0687,304.7277,7.269266,0.0502884,0.55235070,336.0785,02/25.0/2024,2000,g 11.0,4.0
# From MPC 75707
P/2006 HR30 (Siding Spring),e,31.9164,309.8220,117.4237,7.803383,0.0452147,0.84358882,283.6836,02/25.0/2024,2000,g 11.0,4.0
# From MPC 75707
P/2007 C2 (Catalina),e,8.6122,275.2551,180.1589,7.008397,0.0531222,0.47306079,319.8443,02/25.0/2024,2000,g 10.0,4.0
# From MPC 84315
C/2007 D1 (LINEAR),e,41.5050,171.1608,339.6978,1150,0.0000253,0.99238461,0.0000,06/09.6420/2007,2000,g  3.5,4.0
# From MPC 82314
P/2007 K2 (Gibbs),e,7.6207,188.5703,347.2814,7.300038,0.0499708,0.68440894,308.2219,02/25.0/2024,2000,g 14.0,4.0
# From MPC 60925
P/2007 Q2 (Gilmore),e,10.1996,172.1978,162.8729,5.660680,0.0731815,0.66944371,86.7622,02/25.0/2024,2000,g 16.0,4.0
# From MPC 73462
P/2007 S1 (Zhao),e,5.9648,141.3322,245.2139,3.817084,0.1321620,0.33842277,66.9125,02/25.0/2024,2000,g 13.0,4.0
# From MPC 61994
P/2007 T2 (Kowalski),e,9.7507,3.3859,359.6726,3.044153,0.1855685,0.78565550,18.4425,02/25.0/2024,2000,g 18.5,4.0
# From MPC 64114
P/2008 O3 (Boattini),e,32.3292,47.6082,341.1793,8.210561,0.0418933,0.69659748,240.3447,02/25.0/2024,2000,g 13.0,4.0
# From MPC 75710
P/2008 Y3 (McNaught),e,38.7785,262.8356,238.0527,8.043917,0.0432019,0.44702919,239.7664,02/25.0/2024,2000,g  8.5,4.0
# From MPC 75710
P/2009 B1 (Boattini),e,22.2529,297.1047,128.9384,6.732864,0.0564163,0.63604329,311.6905,02/25.0/2024,2000,g 13.0,4.0
# From MPC 66466
C/2009 G1 (STEREO),e,108.2971,120.7425,175.5444,469.0146,0.0000970,0.99756365,0.0000,04/18.0688/2009,2000,g  9.0,4.0
# From MPC 75710
P/2009 O3 (Hill),e,16.2735,183.7116,154.4746,7.767888,0.0455250,0.68702617,245.0519,02/25.0/2024,2000,g 12.5,4.0
# From MPC 68902
P/2009 Q5 (McNaught),e,40.9776,160.2684,209.1615,7.426106,0.0487037,0.60977442,256.6508,02/25.0/2024,2000,g 10.0,4.0
# From MPC112389
P/2009 T2 (La Sagra),e,27.6152,216.3569,215.9188,7.713033,0.0460115,0.76725444,237.4981,02/25.0/2024,2000,g 14.0,4.0
# From MPC105235
P/2009 WX51 (Catalina),e,9.5935,31.5466,118.2619,3.082641,0.1821041,0.73938759,217.9058,02/25.0/2024,2000,g 19.0,2.0
# From MPC 74247
P/2009 Y2 (Kowalski),e,29.9717,262.0823,172.1642,6.545199,0.0588599,0.63735210,300.5118,02/25.0/2024,2000,g 13.0,4.0
# From MPC 75711
P/2010 A3 (Hill),e,14.8189,63.6455,42.2361,6.094560,0.0655074,0.73409581,335.0745,02/25.0/2024,2000,g 14.0,4.0
# From MPC 75008
P/2010 C1 (Scotti),e,9.1176,141.6387,3.1363,7.117256,0.0519081,0.26240477,273.0059,02/25.0/2024,2000,g  9.5,4.0
# From MPC 75008
P/2010 D2 (WISE),e,57.1184,319.8729,119.9397,6.721541,0.0565589,0.45173481,290.4251,02/25.0/2024,2000,g 16.0,4.0
# From MPC 75009
P/2010 E2 (Jarnac),e,15.3984,177.7992,8.2591,8.638838,0.0388169,0.71986697,197.6634,02/25.0/2024,2000,g 14.0,4.0
# From MPC 72851
P/2010 H2 (Vales),e,14.2796,64.1877,128.0523,3.831858,0.1313984,0.19722702,310.2392,02/25.0/2024,2000,g  6.0,4.0
# From MPC 70361
P/2010 H3 (SOHO),e,23.1430,77.1764,26.0671,3.035974,0.1863190,0.98550404,0.0000,05/25.1378/2026,2000,g 20.0,2.0
# From MPC 73463
P/2010 H4 (Scotti),e,2.3180,44.6198,179.1360,6.609406,0.0580043,0.26613394,291.5971,02/25.0/2024,2000,g 10.5,4.0
# From MPC 74637
P/2010 H5 (Scotti),e,14.0574,24.5904,174.5801,7.175496,0.0512774,0.15324107,261.8719,02/25.0/2024,2000,g 13.0,2.0
# From MPC 98558
P/2010 J3 (McMillan),e,13.2402,106.5168,157.4997,8.985434,0.0365928,0.72449731,180.7718,02/25.0/2024,2000,g 11.0,4.0
# From MPC 84315
P/2010 JC81 (WISE),e,38.8157,30.8771,12.4585,8.103366,0.0427273,0.77829887,200.0739,02/25.0/2024,2000,g  9.0,4.0
# From MPC 74248
P/2010 T2 (PANSTARRS),e,7.8935,57.9551,351.6857,5.644799,0.0734905,0.33046712,359.3125,02/25.0/2024,2000,g 11.5,4.0
# From MPEC 2023-O88
P/2010 TO20 (LINEAR-Grauer),e,2.4789,43.2701,267.8417,5.831235,0.0699944,0.05533406,31.5197,02/25.0/2024,2000,g  9.0,4.0
# From MPC 82316
P/2010 U1 (Boattini),e,8.2257,280.8046,86.4019,6.493342,0.0595664,0.24901034,304.8193,02/25.0/2024,2000,g  9.5,4.0
# From MPEC 2023-J95
C/2010 U3 (Boattini),e,55.5662,42.9876,88.0447,4616,0.0000031,0.99817180,0.0000,02/26.2863/2019,2000,g  1.0,4.0
# From MPC 79021
P/2010 UH55 (Spacewatch),e,8.0370,232.8886,225.1840,6.652594,0.0574404,0.56441260,270.4250,02/25.0/2024,2000,g 11.0,4.0
# From MPC 75009
P/2010 WK (LINEAR),e,11.4023,11.3436,40.9972,5.763210,0.0712373,0.69076028,349.5062,02/25.0/2024,2000,g 14.5,2.0
# From MPC 84021
P/2011 C2 (Gibbs),e,10.8889,11.9536,160.3474,7.412545,0.0488375,0.26989842,218.0229,02/25.0/2024,2000,g  9.0,4.0
# From MPC 79866
P/2011 FR143 (Lemmon),e,15.9712,190.8704,349.8075,6.871151,0.0547217,0.45164099,261.1341,02/25.0/2024,2000,g 14.0,2.0
# From MPC 82317
P/2011 JB15 (Spacewatch-Boattini),e,19.1327,153.5663,110.9218,7.374527,0.0492156,0.31481349,218.2029,02/25.0/2024,2000,g  9.0,4.0
# From MPC 87913
P/2011 N1 (ASH),e,35.7820,77.6279,330.4212,6.239209,0.0632426,0.54554669,271.1795,02/25.0/2024,2000,g 11.5,4.0
# From MPEC 2022-ED3
P/2011 P1 (McNaught),e,5.6566,4.2869,349.1842,7.458465,0.0483871,0.32720606,239.5439,02/25.0/2024,2000,g  9.0,4.0
# From MPEC 2022-HC2
P/2011 S1 (Gibbs),e,2.6889,218.8966,192.6791,8.587801,0.0391635,0.20170124,136.0803,02/25.0/2024,2000,g  8.0,4.0
# From MPC 79022
P/2011 UA134 (Spacewatch-PANSTARRS),e,10.4406,40.3998,32.4210,5.610590,0.0741637,0.63011840,333.4638,02/25.0/2024,2000,g 17.5,4.0
# From MPEC 2023-UR6
P/2011 V1 (Boattini),e,7.3842,46.4829,269.6755,3.855373,0.1301981,0.54867385,257.3479,02/25.0/2024,2000,g 15.5,4.0
# From MPC 82718
P/2011 W1 (PANSTARRS),e,3.7172,161.8286,282.8639,4.670833,0.0976366,0.28852776,72.8684,02/25.0/2024,2000,g 11.5,4.0
# From MPC 79342
P/2011 Y2 (Boattini),e,6.3857,309.3355,131.9957,6.234020,0.0633216,0.71099544,276.7191,02/25.0/2024,2000,g 15.0,4.0
# From MPEC 2022-K19
P/2012 B1 (PANSTARRS),e,7.6093,36.2160,162.1374,6.535000,0.0589978,0.40956814,229.7146,02/25.0/2024,2000,g  9.0,4.0
# From MPC 78590
P/2012 C3 (PANSTARRS),e,9.0920,135.3677,344.9542,9.748681,0.0323806,0.63011148,359.9758,10/06.0/2011,2000,g 13.0,4.0
# From MPC 84931
P/2012 F2 (PANSTARRS),e,14.6986,226.9588,33.2506,6.341799,0.0617142,0.54024993,245.7712,02/25.0/2024,2000,g 12.0,4.0
# From MPEC 2022-ED3
P/2012 G1 (PANSTARRS),e,12.1686,283.2541,266.0760,4.164328,0.1159809,0.32904646,144.2499,02/25.0/2024,2000,g 15.0,4.0
# From MPC 80898
P/2012 K3 (Gibbs),e,13.1851,125.8165,172.2091,3.630351,0.1424890,0.42189153,235.7515,02/25.0/2024,2000,g 15.0,4.0
# From MPC 88326
P/2012 NJ (La Sagra),e,84.4624,315.6384,338.4073,8.467702,0.0399996,0.84644113,170.8811,02/25.0/2024,2000,g 14.5,4.0
# From MPC 81470
P/2012 O1 (McNaught),e,7.4277,91.9502,238.3028,3.542408,0.1478279,0.59381450,269.0838,02/25.0/2024,2000,g 17.5,4.0
# From MPC 80899
P/2012 O2 (McNaught),e,24.4616,120.6763,183.4572,3.627864,0.1426355,0.53141207,250.6681,02/25.0/2024,2000,g 17.0,4.0
